NORAD_CAT_ID,OBJECT_NAME,OBJECT_TYPE,EPOCH,MEAN_MOTION,ECCENTRICITY,INCLINATION,RA_OF_ASC_NODE,ARG_OF_PERICENTER,MEAN_ANOMALY,BSTAR,MEAN_MOTION_DOT,MEAN_MOTION_DDOT,TLE_LINE0,TLE_LINE1,TLE_LINE2,SEMIMAJOR_AXIS,PERIOD,APOGEE,PERIGEE,DECAYED
51142.0,STARLINK-3369,PAYLOAD,2022-08-06 06:00:00,15.08860972,0.0001861,53.2181,56.408,61.9653,160.2736,-0.0016294,-0.00026142,0.0,0 STARLINK-3369,1 51142U 22005AQ  22218.25001157 -.00026142  00000-0 -16294-2 0  9999,2 51142  53.2181  56.4080 0001861  61.9653 160.2736 15.08860972 32044,6917.816,95.436,540.969,538.394,0.0
51142.0,STARLINK-3369,PAYLOAD,2022-08-06 14:00:01,15.08869606,0.000184,53.2183,54.9113,66.7549,167.0873,-0.0025765,-0.00041093,0.0,0 STARLINK-3369,1 51142U 22005AQ  22218.58334491 -.00041093  00000-0 -25765-2 0  9990,2 51142  53.2183  54.9113 0001840  66.7549 167.0873 15.08869606  1305,6917.79,95.436,540.928,538.382,0.0
51142.0,STARLINK-3369,PAYLOAD,2022-08-06 19:19:32,15.08912437,0.0001992,53.2213,53.9145,70.339,289.7817,0.00046861,7.192e-05,0.0,0 STARLINK-3369,1 51142U 22005AQ  22218.80523897  .00007192  00000-0  46861-3 0  9996,2 51142  53.2213  53.9145 0001992  70.3390 289.7817 15.08912437 32121,6917.659000000002,95.433,540.9019999999998,538.146,0.0
51142.0,STARLINK-3369,PAYLOAD,2022-08-07 06:00:00,15.08844239,0.0001811999999999,53.2185,51.919,60.7516,196.2814,-0.0013849,-0.00022264,0.0,0 STARLINK-3369,1 51142U 22005AQ  22219.25001157 -.00022264  00000-0 -13849-2 0  9994,2 51142  53.2185  51.9190 0001812  60.7516 196.2814 15.08844239 32191,6917.8669999999975,95.437,540.986,538.479,0.0
51142.0,STARLINK-3369,PAYLOAD,2022-08-07 12:48:52,15.08851309,0.0003208999999999,53.2199,50.6436,54.8826,305.2467,-0.00018629,-3.254e-05,0.0,0 STARLINK-3369,1 51142U 22005AQ  22219.53394035 -.00003254  00000-0 -18629-3 0  9995,2 51142  53.2199  50.6436 0003209  54.8826 305.2467 15.08851309 31084,6917.846,95.437,541.931,537.491,0.0
51142.0,STARLINK-3369,PAYLOAD,2022-08-07 19:10:24,15.08843025,0.0001847,53.2198,49.4547,62.4332,297.6848,6.0319000000000015e-06,-1.92e-06,0.0,0 STARLINK-3369,1 51142U 22005AQ  22219.79889683 -.00000192  00000-0  60319-5 0  9993,2 51142  53.2198  49.4547 0001847  62.4332 297.6848 15.08843025 32270,6917.871,95.437,541.014,538.4580000000002,0.0
51142.0,STARLINK-3369,PAYLOAD,2022-08-08 00:00:02,15.08829023,0.0001943999999999,53.2186,48.5536,57.0807,316.1093,0.0028049,0.00044622,0.0,0 STARLINK-3369,1 51142U 22005AQ  22220.00002315  .00044622  00000-0  28049-2 0  9994,2 51142  53.2186  48.5536 0001944  57.0807 316.1093 15.08829023  1301,6917.9140000000025,95.438,541.124,538.434,0.0
51142.0,STARLINK-3369,PAYLOAD,2022-08-08 14:00:01,15.08858179,0.0001788,53.219,45.9333,63.7341,239.7794,-0.00053136,-8.739e-05,0.0,0 STARLINK-3369,1 51142U 22005AQ  22220.58335648 -.00008739  00000-0 -53136-3 0  9992,2 51142  53.2190  45.9333 0001788  63.7341 239.7794 15.08858179  1307,6917.825,95.436,540.927,538.453,0.0
51142.0,STARLINK-3369,PAYLOAD,2022-08-08 22:00:00,15.0884116,0.0001878,53.219,44.4386,56.1144,258.9523,0.0015220999999999,0.0002401999999999,0.0,0 STARLINK-3369,1 51142U 22005AQ  22220.91667824  .00024020  00000-0  15221-2 0  9994,2 51142  53.2190  44.4386 0001878  56.1144 258.9523 15.08841160 32440,6917.877,95.437,541.0409999999998,538.443,0.0
51142.0,STARLINK-3369,PAYLOAD,2022-08-09 14:00:01,15.0884473,0.0001595999999999,53.2192,41.4443,60.4765,277.7867,-0.0020786999999999,-0.00033223,0.0,0 STARLINK-3369,1 51142U 22005AQ  22221.58334491 -.00033223  00000-0 -20787-2 0  9999,2 51142  53.2192  41.4443 0001596  60.4765 277.7867 15.08844730  1304,6917.866,95.437,540.835,538.627,0.0
51142.0,STARLINK-3369,PAYLOAD,2022-08-09 22:00:00,15.08800781,0.0001704,53.2191,39.9495,52.8544,296.9975,0.002957,0.00047036,0.0,0 STARLINK-3369,1 51142U 22005AQ  22221.91667824  .00047036  00000-0  29570-2 0  9999,2 51142  53.2191  39.9495 0001704  52.8544 296.9975 15.08800781  1304,6918.0,95.44,541.044,538.686,0.0
51142.0,STARLINK-3369,PAYLOAD,2022-08-10 06:00:00,15.08826212,0.0001546,53.219,38.4515,57.8278,303.5959,0.00045029,6.883e-05,0.0,0 STARLINK-3369,1 51142U 22005AQ  22222.25001157  .00006883  00000-0  45029-3 0  9991,2 51142  53.2190  38.4515 0001546  57.8278 303.5959 15.08826212 32648,6917.9230000000025,95.438,540.857,538.7180000000002,0.0
51142.0,STARLINK-3369,PAYLOAD,2022-08-10 14:00:01,15.08850382,0.000154,53.2192,36.9554,60.173,312.8237,-0.00094509,-0.00015302,0.0,0 STARLINK-3369,1 51142U 22005AQ  22222.58334491 -.00015302  00000-0 -94509-3 0  9992,2 51142  53.2192  36.9554 0001540  60.1730 312.8237 15.08850382  1306,6917.849,95.437,540.779,538.648,0.0
51142.0,STARLINK-3369,PAYLOAD,2022-08-10 22:00:00,15.08829383,0.0001609,53.2189,35.4603,52.0087,332.5925,-0.00014223,-2.55e-05,0.0,0 STARLINK-3369,1 51142U 22005AQ  22222.91667824 -.00002550  00000-0 -14223-3 0  9994,2 51142  53.2189  35.4603 0001609  52.0087 332.5925 15.08829383  1302,6917.913000000001,95.438,540.891,538.665,0.0
51142.0,STARLINK-3369,PAYLOAD,2022-08-11 06:00:02,15.08809054,0.0001399,53.2189,33.9622,57.1485,339.1019,0.00089394,0.00013956,0.0,0 STARLINK-3369,1 51142U 22005AQ  22223.25002315  .00013956  00000-0  89394-3 0  9991,2 51142  53.2189  33.9622 0001399  57.1485 339.1019 15.08809054 32797,6917.975,95.44,540.808,538.872,0.0
51142.0,STARLINK-3369,PAYLOAD,2022-08-11 14:00:01,15.08840481,0.0001429,53.219,32.4664,58.7404,349.0051,-0.0013713,-0.00022046,0.0,0 STARLINK-3369,1 51142U 22005AQ  22223.58334491 -.00022046  00000-0 -13713-2 0  9993,2 51142  53.2190  32.4664 0001429  58.7404 349.0051 15.08840481  1309,6917.879,95.438,540.732,538.755,0.0
51142.0,STARLINK-3369,PAYLOAD,2022-08-12 14:00:01,15.08867751,0.0001426,53.2187,27.9774,58.2084,24.2946,-0.0024048,-0.00038386,0.0,0 STARLINK-3369,1 51142U 22005AQ  22224.58334491 -.00038386  00000-0 -24048-2 0  9991,2 51142  53.2187  27.9774 0001426  58.2084  24.2946 15.08867751 32995,6917.795999999999,95.436,540.6469999999998,538.674,0.0
51142.0,STARLINK-3369,PAYLOAD,2022-08-12 22:00:01,15.08817927,0.0001475,53.2184,26.4821,48.7899,45.3962,0.0017532,0.00027707,0.0,0 STARLINK-3369,1 51142U 22005AQ  22224.91668981  .00027707  00000-0  17532-2 0  9995,2 51142  53.2184  26.4821 0001475  48.7899  45.3962 15.08817927  1304,6917.948,95.439,540.8330000000002,538.7919999999998,0.0
51142.0,STARLINK-3369,PAYLOAD,2022-08-13 14:00:01,15.08846299,0.0001402,53.2179,23.4805,55.1799,62.1031,-0.0010077,-0.00016292,0.0,0 STARLINK-3369,1 51142U 22005AQ  22225.58334491 -.00016292  00000-0 -10077-2 0  9991,2 51142  53.2179  23.4805 0001402  55.1799  62.1031 15.08846299  1306,6917.861,95.437,540.696,538.756,0.0
51142.0,STARLINK-3369,PAYLOAD,2022-08-13 22:00:00,15.08832845,0.0001549,53.2173,21.9812,46.2076,82.675,0.00046397,7.102e-05,0.0,0 STARLINK-3369,1 51142U 22005AQ  22225.91667824  .00007102  00000-0  46397-3 0  9990,2 51142  53.2173  21.9812 0001549  46.2076  82.6750 15.08832845  1309,6917.901999999999,95.438,540.839,538.696,0.0
51142.0,STARLINK-3369,PAYLOAD,2022-08-14 14:00:01,15.08882745,0.0001433,53.219,18.9994,52.9437,99.1306,-0.0041222,-0.00065374,0.0,0 STARLINK-3369,1 51142U 22005AQ  22226.58334491 -.00065374  00000-0 -41222-2 0  9993,2 51142  53.2190  18.9994 0001433  52.9437  99.1306 15.08882745  1306,6917.75,95.435,540.606,538.623,0.0
51142.0,STARLINK-3369,PAYLOAD,2022-08-14 22:00:00,15.08822139,0.0001503,53.219,17.5041,43.5717,120.1257,0.0026191999999999,0.00041623,0.0,0 STARLINK-3369,1 51142U 22005AQ  22226.91667824  .00041623  00000-0  26192-2 0  9997,2 51142  53.2190  17.5041 0001503  43.5717 120.1257 15.08822139  1300,6917.935,95.439,540.84,538.76,0.0
51142.0,STARLINK-3369,PAYLOAD,2022-08-15 06:00:00,15.08833674,0.0001364,53.2188,16.0061,50.3976,124.8949,0.00090926,0.0001421,0.0,0 STARLINK-3369,1 51142U 22005AQ  22227.25001157  .00014210  00000-0  90926-3 0  9995,2 51142  53.2188  16.0061 0001364  50.3976 124.8949 15.08833674 33402,6917.9,95.438,540.7080000000002,538.821,0.0
51142.0,STARLINK-3369,PAYLOAD,2022-08-15 14:00:01,15.08842501,0.0001536,53.2184,14.5108,51.5431,135.3456,-0.0018046,-0.00028895,0.0,0 STARLINK-3369,1 51142U 22005AQ  22227.58334491 -.00028895  00000-0 -18046-2 0  9999,2 51142  53.2184  14.5108 0001536  51.5431 135.3456 15.08842501  1306,6917.873000000001,95.437,540.8,538.675,0.0
51142.0,STARLINK-3369,PAYLOAD,2022-08-15 22:00:00,15.08821637,0.0001647,53.2176,13.0153,46.4015,152.0734,0.0019084,0.000302,0.0,0 STARLINK-3369,1 51142U 22005AQ  22227.91667824  .00030200  00000-0  19084-2 0  9999,2 51142  53.2176  13.0153 0001647  46.4015 152.0734 15.08821637  1307,6917.937,95.439,540.941,538.6619999999998,0.0
51142.0,STARLINK-3369,PAYLOAD,2022-08-16 14:00:01,15.0887082,0.0001551,53.2182,10.0221,49.8173,171.8406,-0.0040786,-0.00064671,0.0,0 STARLINK-3369,1 51142U 22005AQ  22228.58334491 -.00064671  00000-0 -40786-2 0  9998,2 51142  53.2182  10.0221 0001551  49.8173 171.8406 15.08870820  1306,6917.786,95.436,540.724,538.578,0.0
51142.0,STARLINK-3369,PAYLOAD,2022-08-16 22:00:00,15.0882473,0.0001591,53.218,8.5263,42.9124,190.3526,0.0012132,0.00019065,0.0,0 STARLINK-3369,1 51142U 22005AQ  22228.91667824  .00019065  00000-0  12132-2 0  9993,2 51142  53.2180   8.5263 0001591  42.9124 190.3526 15.08824730  1304,6917.927,95.439,540.893,538.691,0.0
51142.0,STARLINK-3369,PAYLOAD,2022-08-17 06:00:02,15.08813582,0.0001418,53.2182,7.0282,49.2094,195.7113,0.0031118,0.00049549,0.0,0 STARLINK-3369,1 51142U 22005AQ  22229.25002315  .00049549  00000-0  31118-2 0  9994,2 51142  53.2182   7.0282 0001418  49.2094 195.7113 15.08813582 33708,6917.9609999999975,95.439,540.807,538.845,0.0
51142.0,STARLINK-3369,PAYLOAD,2022-08-17 16:00:00,15.08853999,0.0001641999999999,53.2183,5.1596,47.1512,302.1903,-0.0029674,-0.00047223,0.0,0 STARLINK-3369,1 51142U 22005AQ  22229.66667824 -.00047223  00000-0 -29674-2 0  9994,2 51142  53.2183   5.1596 0001642  47.1512 302.1903 15.08853999  1305,6917.8380000000025,95.437,540.839,538.567,0.0
